[{"OBJECT_NAME":"STARLINK-31916","OBJECT_ID":"2024-093P","EPOCH":"2026-03-09T10:00:19.442016","MEAN_MOTION":15.27560366,"ECCENTRICITY":0.00011981,"INCLINATION":43.0034,"RA_OF_ASC_NODE":210.439,"ARG_OF_PERICENTER":249.4006,"MEAN_ANOMALY":110.6718,"EPHEMERIS_TYPE":0,"CLASSIFICATION_TYPE":"U","NORAD_CAT_ID":59795,"ELEMENT_SET_NO":999,"REV_AT_EPOCH":10265,"BSTAR":1.1522163e-5,"MEAN_MOTION_DOT":5.5e-7,"MEAN_MOTION_DDOT":0},{"OBJECT_NAME":"CZ-2C R\/B","OBJECT_ID":"2014-014B","EPOCH":"2026-03-09T23:01:00.862464","MEAN_MOTION":15.34922702,"ECCENTRICITY":0.00700559,"INCLINATION":98.3314,"RA_OF_ASC_NODE":172.135,"ARG_OF_PERICENTER":276.2597,"MEAN_ANOMALY":83.0667,"EPHEMERIS_TYPE":0,"CLASSIFICATION_TYPE":"U","NORAD_CAT_ID":39625,"ELEMENT_SET_NO":999,"REV_AT_EPOCH":65564,"BSTAR":0.0004934259,"MEAN_MOTION_DOT":0.00018031,"MEAN_MOTION_DDOT":0}]
